{
  "type": "FeatureCollection",
  "features": [
    {
      "type": "Feature",
      "properties": {
        "norad_id": 32376,
        "name": "COSMO-SKYMED 2",
        "group": "resource",
        "lat": -10.460903188459124,
        "lon": 165.8277097459415,
        "alt_km": 626.8915528264815,
        "timestamp": "2025-12-08T23:34:03.626121+00:00",
        "meta_object_name": "COSMO-SKYMED 2",
        "meta_object_id": "2007-059A",
        "meta_epoch": "2025-12-08T13:53:37.393728",
        "meta_mean_motion": 14.82158922,
        "meta_eccentricity": 0.00015262,
        "meta_inclination": 97.8812,
        "meta_ra_of_asc_node": 163.9653,
        "meta_arg_of_pericenter": 86.0818,
        "meta_mean_anomaly": 274.057,
        "meta_ephemeris_type": 0,
        "meta_classification_type": "U",
        "meta_norad_cat_id": 32376,
        "meta_element_set_no": 999,
        "meta_rev_at_epoch": 97376,
        "meta_bstar": 0.00015059388,
        "meta_mean_motion_dot": 1.147e-05,
        "meta_mean_motion_ddot": 0,
        "tle_line1": "1 32376U 07059A   25342.57890502  .00001147  00000+0  15059-3 0  9999",
        "tle_line2": "2 32376  97.8812 163.9653 0001526  86.0818 274.0570 14.82158922973765"
      },
      "geometry": {
        "type": "Point",
        "coordinates": [
          165.8277097459415,
          -10.460903188459124
        ]
      }
    },
    {
      "type": "Feature",
      "properties": {
        "norad_id": 32382,
        "name": "RADARSAT-2",
        "group": "resource",
        "lat": -74.33806367607822,
        "lon": 20.207050103295014,
        "alt_km": 799.8357116008174,
        "timestamp": "2025-12-08T23:34:03.626131+00:00",
        "meta_object_name": "RADARSAT-2",
        "meta_object_id": "2007-061A",
        "meta_epoch": "2025-12-08T15:31:48.495648",
        "meta_mean_motion": 14.29985788,
        "meta_eccentricity": 0.00010884,
        "meta_inclination": 98.5799,
        "meta_ra_of_asc_node": 347.2968,
        "meta_arg_of_pericenter": 91.6388,
        "meta_mean_anomaly": 268.492,
        "meta_ephemeris_type": 0,
        "meta_classification_type": "U",
        "meta_norad_cat_id": 32382,
        "meta_element_set_no": 999,
        "meta_rev_at_epoch": 93872,
        "meta_bstar": 7.7168948e-05,
        "meta_mean_motion_dot": 1.55e-06,
        "meta_mean_motion_ddot": 0,
        "tle_line1": "1 32382U 07061A   25342.64708907  .00000155  00000+0  77169-4 0  9993",
        "tle_line2": "2 32382  98.5799 347.2968 0001088  91.6388 268.4920 14.29985788938729"
      },
      "geometry": {
        "type": "Point",
        "coordinates": [
          20.207050103295014,
          -74.33806367607822
        ]
      }
    },
    {
      "type": "Feature",
      "properties": {
        "norad_id": 32783,
        "name": "CARTOSAT-2A",
        "group": "resource",
        "lat": 6.829912730220948,
        "lon": -146.13727585580523,
        "alt_km": 642.5874386622709,
        "timestamp": "2025-12-08T23:34:03.626142+00:00",
        "meta_object_name": "CARTOSAT-2A",
        "meta_object_id": "2008-021A",
        "meta_epoch": "2025-12-08T14:40:10.037856",
        "meta_mean_motion": 14.78926689,
        "meta_eccentricity": 0.00121163,
        "meta_inclination": 97.7936,
        "meta_ra_of_asc_node": 32.5636,
        "meta_arg_of_pericenter": 17.7166,
        "meta_mean_anomaly": 342.4466,
        "meta_ephemeris_type": 0,
        "meta_classification_type": "U",
        "meta_norad_cat_id": 32783,
        "meta_element_set_no": 999,
        "meta_rev_at_epoch": 95063,
        "meta_bstar": 0.00024141622,
        "meta_mean_motion_dot": 1.732e-05,
        "meta_mean_motion_ddot": 0,
        "tle_line1": "1 32783U 08021A   25342.61122729  .00001732  00000+0  24142-3 0  9998",
        "tle_line2": "2 32783  97.7936  32.5636 0012116  17.7166 342.4466 14.78926689950632"
      },
      "geometry": {
        "type": "Point",
        "coordinates": [
          -146.13727585580523,
          6.829912730220948
        ]
      }
    },
    {
      "type": "Feature",
      "properties": {
        "norad_id": 33320,
        "name": "HUANJING 1A (HJ-1A)",
        "group": "resource",
        "lat": -21.92851465122081,
        "lon": -25.459451244990774,
        "alt_km": 618.7665944528144,
        "timestamp": "2025-12-08T23:34:03.626153+00:00",
        "meta_object_name": "HUANJING 1A (HJ-1A)",
        "meta_object_id": "2008-041A",
        "meta_epoch": "2025-12-08T13:57:12.552192",
        "meta_mean_motion": 14.83375356,
        "meta_eccentricity": 0.00203905,
        "meta_inclination": 97.654,
        "meta_ra_of_asc_node": 331.0533,
        "meta_arg_of_pericenter": 47.5772,
        "meta_mean_anomaly": 312.7164,
        "meta_ephemeris_type": 0,
        "meta_classification_type": "U",
        "meta_norad_cat_id": 33320,
        "meta_element_set_no": 999,
        "meta_rev_at_epoch": 93014,
        "meta_bstar": 0.00036895792,
        "meta_mean_motion_dot": 2.985e-05,
        "meta_mean_motion_ddot": 0,
        "tle_line1": "1 33320U 08041A   25342.58139528  .00002985  00000+0  36896-3 0  9999",
        "tle_line2": "2 33320  97.6540 331.0533 0020390  47.5772 312.7164 14.83375356930144"
      },
      "geometry": {
        "type": "Point",
        "coordinates": [
          -25.459451244990774,
          -21.92851465122081
        ]
      }
    },
    {
      "type": "Feature",
      "properties": {
        "norad_id": 33321,
        "name": "HUANJING 1B (HJ-1B)",
        "group": "resource",
        "lat": -27.257247167287957,
        "lon": 151.17856735848906,
        "alt_km": 639.4715763413178,
        "timestamp": "2025-12-08T23:34:03.626164+00:00",
        "meta_object_name": "HUANJING 1B (HJ-1B)",
        "meta_object_id": "2008-041B",
        "meta_epoch": "2025-12-08T14:32:27.904992",
        "meta_mean_motion": 14.82805678,
        "meta_eccentricity": 0.00382372,
        "meta_inclination": 97.6399,
        "meta_ra_of_asc_node": 334.7845,
        "meta_arg_of_pericenter": 88.9183,
        "meta_mean_anomaly": 271.6412,
        "meta_ephemeris_type": 0,
        "meta_classification_type": "U",
        "meta_norad_cat_id": 33321,
        "meta_element_set_no": 999,
        "meta_rev_at_epoch": 93016,
        "meta_bstar": 0.00029707706,
        "meta_mean_motion_dot": 2.382e-05,
        "meta_mean_motion_ddot": 0,
        "tle_line1": "1 33321U 08041B   25342.60587853  .00002382  00000+0  29708-3 0  9996",
        "tle_line2": "2 33321  97.6399 334.7845 0038237  88.9183 271.6412 14.82805678930162"
      },
      "geometry": {
        "type": "Point",
        "coordinates": [
          151.17856735848906,
          -27.257247167287957
        ]
      }
    },
    {
      "type": "Feature",
      "properties": {
        "norad_id": 33331,
        "name": "GEOEYE 1",
        "group": "resource",
        "lat": 74.10217028036323,
        "lon": 24.20141347149402,
        "alt_km": 672.1750569052547,
        "timestamp": "2025-12-08T23:34:03.626175+00:00",
        "meta_object_name": "GEOEYE 1",
        "meta_object_id": "2008-042A",
        "meta_epoch": "2025-12-08T15:01:24.675456",
        "meta_mean_motion": 14.64804897,
        "meta_eccentricity": 0.00027912,
        "meta_inclination": 98.1257,
        "meta_ra_of_asc_node": 53.958,
        "meta_arg_of_pericenter": 295.0673,
        "meta_mean_anomaly": 65.024,
        "meta_ephemeris_type": 0,
        "meta_classification_type": "U",
        "meta_norad_cat_id": 33331,
        "meta_element_set_no": 999,
        "meta_rev_at_epoch": 92225,
        "meta_bstar": 0.00024464317,
        "meta_mean_motion_dot": 1.258e-05,
        "meta_mean_motion_ddot": 0,
        "tle_line1": "1 33331U 08042A   25342.62598004  .00001258  00000+0  24464-3 0  9995",
        "tle_line2": "2 33331  98.1257  53.9580 0002791 295.0673  65.0240 14.64804897922256"
      },
      "geometry": {
        "type": "Point",
        "coordinates": [
          24.20141347149402,
          74.10217028036323
        ]
      }
    },
    {
      "type": "Feature",
      "properties": {
        "norad_id": 33396,
        "name": "THEOS",
        "group": "resource",
        "lat": 2.8434413509522667,
        "lon": -138.38750129991055,
        "alt_km": 827.3978093300875,
        "timestamp": "2025-12-08T23:34:03.626186+00:00",
        "meta_object_name": "THEOS",
        "meta_object_id": "2008-049A",
        "meta_epoch": "2025-12-08T14:16:55.170336",
        "meta_mean_motion": 14.20095298,
        "meta_eccentricity": 0.00011156,
        "meta_inclination": 98.5874,
        "meta_ra_of_asc_node": 40.807,
        "meta_arg_of_pericenter": 100.4848,
        "meta_mean_anomaly": 259.6455,
        "meta_ephemeris_type": 0,
        "meta_classification_type": "U",
        "meta_norad_cat_id": 33396,
        "meta_element_set_no": 999,
        "meta_rev_at_epoch": 89091,
        "meta_bstar": 9.0526603e-05,
        "meta_mean_motion_dot": 1.5e-06,
        "meta_mean_motion_ddot": 0,
        "tle_line1": "1 33396U 08049A   25342.59508299  .00000150  00000+0  90527-4 0  9990",
        "tle_line2": "2 33396  98.5874  40.8070 0001115 100.4848 259.6455 14.20095298890912"
      },
      "geometry": {
        "type": "Point",
        "coordinates": [
          -138.38750129991055,
          2.8434413509522667
        ]
      }
    }
  ]
}